ONEWEB-0092             
1 45437U 20020P   25322.36329944  .00000218  00000+0  57924-3 0  9991
2 45437  87.8872  63.0446 0001319  96.1285 263.9993 13.11414530275157
ONEWEB-0085             
1 45438U 20020Q   25322.24716003 -.00000294  00000+0 -86549-3 0  9996
2 45438  87.8864  63.0766 0001605 102.2437 257.8870 13.11417922275020
ONEWEB-0096             
1 45439U 20020R   25322.24885325 -.00000187  00000+0 -56341-3 0  9999
2 45439  87.8873  63.0542 0001724 107.5678 252.5638 13.11417538275016
ONEWEB-0037             
1 45440U 20020S   25322.30564551 -.00000397  00000+0 -11572-2 0  9992
2 45440  87.8879  63.0107 0001557 103.0076 257.1226 13.11415555275053
ONEWEB-0042             
1 45441U 20020T   25322.23853987 -.00000463  00000+0 -13416-2 0  9992
2 45441  87.8869  63.0565 0001517 106.4228 253.7067 13.11416744275015
ONEWEB-0098             
1 45442U 20020U   25322.23443618 -.00000479  00000+0 -13863-2 0  9992
2 45442  87.8871  63.0694 0001694 101.0045 259.1273 13.11417331274994
ONEWEB-0055             
1 45443U 20020V   25322.37007672  .00000012  00000+0 -60601-6 0  9992
2 45443  87.8854  63.0403 0002183 106.6229 253.5138 13.11414100274981
ONEWEB-0093             
1 45444U 20020W   25322.34564417  .00000422  00000+0  11546-2 0  9999
2 45444  87.8870  63.0343 0001591 118.1491 241.9798 13.11417261275046
ONEWEB-0029             
1 45445U 20020X   25322.28531087  .00000409  00000+0  11183-2 0  9992
2 45445  87.8872  63.0589 0001685 107.8263 252.3049 13.11416625275012
ONEWEB-0068             
1 45446U 20020Y   25322.34536949  .00000397  00000+0  10831-2 0  9997
2 45446  87.8873  63.0359 0001682 107.2710 252.8602 13.11416407274968
ONEWEB-0046             
1 45447U 20020Z   25322.33702303  .00000176  00000+0  46145-3 0  9999
2 45447  87.8872  63.0456 0001479 109.3228 250.8060 13.11417859274976
ONEWEB-0063             
1 45448U 20020AA  25322.28954909  .00000240  00000+0  64242-3 0  9995
2 45448  87.8872  63.0531 0001410 102.7114 257.4171 13.11414656275055
ONEWEB-0019             
1 45449U 20020AB  25322.33955617  .00000259  00000+0  69531-3 0  9995
2 45449  87.8859  63.0553 0001733 102.6910 257.4412 13.11420799274902
ONEWEB-0094             
1 45450U 20020AC  25322.25224997  .00000070  00000+0  14608-3 0  9994
2 45450  87.9143  47.7781 0001718 102.9307 257.2017 13.17651720278537
ONEWEB-0087             
1 45451U 20020AD  25322.29957272 -.00000178  00000+0 -53910-3 0  9998
2 45451  87.8881  63.0068 0001835 112.1146 248.0177 13.11414011274949
ONEWEB-0082             
1 45452U 20020AE  25322.29632117 -.00000062  00000+0 -21115-3 0  9991
2 45452  87.8878  63.0328 0001786 109.6156 250.5165 13.11413834275030
ONEWEB-0050             
1 45453U 20020AF  25322.38606964 -.00008520  00000+0 -90312-3 0  9995
2 45453  88.9216 261.9673 0004970  49.8819 310.2844 14.89332753308996
